{
  "type": "FeatureCollection",
  "features": [
    {
      "type": "Feature",
      "properties": {
        "norad_id": 43823,
        "name": "GEO-KOMPSAT-2A",
        "group": "weather",
        "lat": 0.0034354823505622716,
        "lon": 103.79846974281548,
        "alt_km": 35783.930508836806,
        "timestamp": "2025-12-14T16:47:40.326263+00:00",
        "meta_object_name": "GEO-KOMPSAT-2A",
        "meta_object_id": "2018-100A",
        "meta_epoch": "2025-12-13T22:37:15.364416",
        "meta_mean_motion": 1.00273273,
        "meta_eccentricity": 4.49e-05,
        "meta_inclination": 0.0455,
        "meta_ra_of_asc_node": 141.9577,
        "meta_arg_of_pericenter": 335.1899,
        "meta_mean_anomaly": 73.3078,
        "meta_ephemeris_type": 0,
        "meta_classification_type": "U",
        "meta_norad_cat_id": 43823,
        "meta_element_set_no": 999,
        "meta_rev_at_epoch": 2577,
        "meta_bstar": 0,
        "meta_mean_motion_dot": -3.27e-06,
        "meta_mean_motion_ddot": 0,
        "tle_line1": "1 43823U 18100A   25347.94253894 -.00000327  00000+0  00000+0 0  9996",
        "tle_line2": "2 43823   0.0455 141.9577 0000449 335.1899  73.3078  1.00273273 25779"
      },
      "geometry": {
        "type": "Point",
        "coordinates": [
          103.79846974281548,
          0.0034354823505622716
        ]
      }
    },
    {
      "type": "Feature",
      "properties": {
        "norad_id": 44387,
        "name": "METEOR-M2 2",
        "group": "weather",
        "lat": -20.53614828944801,
        "lon": -28.18337837859275,
        "alt_km": 816.9332836696567,
        "timestamp": "2025-12-14T16:47:40.326274+00:00",
        "meta_object_name": "METEOR-M2 2",
        "meta_object_id": "2019-038A",
        "meta_epoch": "2025-12-14T00:01:55.312896",
        "meta_mean_motion": 14.2429304,
        "meta_eccentricity": 0.00013075,
        "meta_inclination": 98.8975,
        "meta_ra_of_asc_node": 327.7455,
        "meta_arg_of_pericenter": 145.0862,
        "meta_mean_anomaly": 215.0402,
        "meta_ephemeris_type": 0,
        "meta_classification_type": "U",
        "meta_norad_cat_id": 44387,
        "meta_element_set_no": 999,
        "meta_rev_at_epoch": 33493,
        "meta_bstar": 0.0002223079,
        "meta_mean_motion_dot": 4.68e-06,
        "meta_mean_motion_ddot": 0,
        "tle_line1": "1 44387U 19038A   25348.00133464  .00000468  00000+0  22231-3 0  9990",
        "tle_line2": "2 44387  98.8975 327.7455 0001307 145.0862 215.0402 14.24293040334939"
      },
      "geometry": {
        "type": "Point",
        "coordinates": [
          -28.18337837859275,
          -20.53614828944801
        ]
      }
    },
    {
      "type": "Feature",
      "properties": {
        "norad_id": 47719,
        "name": "ARKTIKA-M 1",
        "group": "weather",
        "lat": 57.652472363839955,
        "lon": 136.69875895022616,
        "alt_km": 34233.96534473649,
        "timestamp": "2025-12-14T16:47:40.326287+00:00",
        "meta_object_name": "ARKTIKA-M 1",
        "meta_object_id": "2021-016A",
        "meta_epoch": "2025-12-09T14:03:23.859648",
        "meta_mean_motion": 2.00631311,
        "meta_eccentricity": 0.7202538,
        "meta_inclination": 63.1769,
        "meta_ra_of_asc_node": 84.4506,
        "meta_arg_of_pericenter": 269.1116,
        "meta_mean_anomaly": 15.6235,
        "meta_ephemeris_type": 0,
        "meta_classification_type": "U",
        "meta_norad_cat_id": 47719,
        "meta_element_set_no": 999,
        "meta_rev_at_epoch": 3498,
        "meta_bstar": 0,
        "meta_mean_motion_dot": -6.1e-07,
        "meta_mean_motion_ddot": 0,
        "tle_line1": "1 47719U 21016A   25343.58569282 -.00000061  00000+0  00000+0 0  9996",
        "tle_line2": "2 47719  63.1769  84.4506 7202538 269.1116  15.6235  2.00631311 34985"
      },
      "geometry": {
        "type": "Point",
        "coordinates": [
          136.69875895022616,
          57.652472363839955
        ]
      }
    },
    {
      "type": "Feature",
      "properties": {
        "norad_id": 49008,
        "name": "FENGYUN 3E",
        "group": "weather",
        "lat": -80.89652115796606,
        "lon": 95.26266113158218,
        "alt_km": 832.6994992829514,
        "timestamp": "2025-12-14T16:47:40.326303+00:00",
        "meta_object_name": "FENGYUN 3E",
        "meta_object_id": "2021-062A",
        "meta_epoch": "2025-12-14T00:19:02.377344",
        "meta_mean_motion": 14.19879299,
        "meta_eccentricity": 5.568e-05,
        "meta_inclination": 98.7481,
        "meta_ra_of_asc_node": 348.5192,
        "meta_arg_of_pericenter": 256.112,
        "meta_mean_anomaly": 103.9995,
        "meta_ephemeris_type": 0,
        "meta_classification_type": "U",
        "meta_norad_cat_id": 49008,
        "meta_element_set_no": 999,
        "meta_rev_at_epoch": 23030,
        "meta_bstar": -2.9459641e-05,
        "meta_mean_motion_dot": -1.06e-06,
        "meta_mean_motion_ddot": 0,
        "tle_line1": "1 49008U 21062A   25348.01322196 -.00000106  00000+0 -29460-4 0  9991",
        "tle_line2": "2 49008  98.7481 348.5192 0000556 256.1120 103.9995 14.19879299230308"
      },
      "geometry": {
        "type": "Point",
        "coordinates": [
          95.26266113158218,
          -80.89652115796606
        ]
      }
    },
    {
      "type": "Feature",
      "properties": {
        "norad_id": 51850,
        "name": "GOES 18",
        "group": "weather",
        "lat": -0.00036923269657062387,
        "lon": -161.47094527311447,
        "alt_km": 35786.97957644627,
        "timestamp": "2025-12-14T16:47:40.326316+00:00",
        "meta_object_name": "GOES 18",
        "meta_object_id": "2022-021A",
        "meta_epoch": "2025-12-13T17:56:02.494176",
        "meta_mean_motion": 1.00273314,
        "meta_eccentricity": 6.581e-05,
        "meta_inclination": 0.0064,
        "meta_ra_of_asc_node": 232.7478,
        "meta_arg_of_pericenter": 86.902,
        "meta_mean_anomaly": 255.043,
        "meta_ephemeris_type": 0,
        "meta_classification_type": "U",
        "meta_norad_cat_id": 51850,
        "meta_element_set_no": 999,
        "meta_rev_at_epoch": 473,
        "meta_bstar": 0,
        "meta_mean_motion_dot": 1.12e-06,
        "meta_mean_motion_ddot": 0,
        "tle_line1": "1 51850U 22021A   25347.74725109  .00000112  00000+0  00000+0 0  9994",
        "tle_line2": "2 51850   0.0064 232.7478 0000658  86.9020 255.0430  1.00273314  4732"
      },
      "geometry": {
        "type": "Point",
        "coordinates": [
          -161.47094527311447,
          -0.00036923269657062387
        ]
      }
    },
    {
      "type": "Feature",
      "properties": {
        "norad_id": 54234,
        "name": "NOAA 21 (JPSS-2)",
        "group": "weather",
        "lat": -81.14323106360052,
        "lon": 6.082980195990203,
        "alt_km": 835.1290595460268,
        "timestamp": "2025-12-14T16:47:40.326327+00:00",
        "meta_object_name": "NOAA 21 (JPSS-2)",
        "meta_object_id": "2022-150A",
        "meta_epoch": "2025-12-13T22:36:11.888928",
        "meta_mean_motion": 14.19524764,
        "meta_eccentricity": 0.00021798,
        "meta_inclination": 98.7463,
        "meta_ra_of_asc_node": 284.235,
        "meta_arg_of_pericenter": 35.9218,
        "meta_mean_anomaly": 324.2104,
        "meta_ephemeris_type": 0,
        "meta_classification_type": "U",
        "meta_norad_cat_id": 54234,
        "meta_element_set_no": 999,
        "meta_rev_at_epoch": 16026,
        "meta_bstar": 9.301655e-05,
        "meta_mean_motion_dot": 1.52e-06,
        "meta_mean_motion_ddot": 0,
        "tle_line1": "1 54234U 22150A   25347.94180427  .00000152  00000+0  93017-4 0  9995",
        "tle_line2": "2 54234  98.7463 284.2350 0002179  35.9218 324.2104 14.19524764160262"
      },
      "geometry": {
        "type": "Point",
        "coordinates": [
          6.082980195990203,
          -81.14323106360052
        ]
      }
    },
    {
      "type": "Feature",
      "properties": {
        "norad_id": 54743,
        "name": "METEOSAT-12 (MTG-I1)",
        "group": "weather",
        "lat": -0.5159516341088238,
        "lon": -24.728724436212648,
        "alt_km": 35784.7799137506,
        "timestamp": "2025-12-14T16:47:40.326384+00:00",
        "meta_object_name": "METEOSAT-12 (MTG-I1)",
        "meta_object_id": "2022-170C",
        "meta_epoch": "2025-12-13T22:23:38.652000",
        "meta_mean_motion": 1.00269356,
        "meta_eccentricity": 0.00016539,
        "meta_inclination": 0.6882,
        "meta_ra_of_asc_node": 23.8293,
        "meta_arg_of_pericenter": 238.2122,
        "meta_mean_anomaly": 156.4626,
        "meta_ephemeris_type": 0,
        "meta_classification_type": "U",
        "meta_norad_cat_id": 54743,
        "meta_element_set_no": 999,
        "meta_rev_at_epoch": 1112,
        "meta_bstar": 0,
        "meta_mean_motion_dot": 9e-08,
        "meta_mean_motion_ddot": 0,
        "tle_line1": "1 54743U 22170C   25347.93308625  .00000009  00000+0  00000+0 0  9999",
        "tle_line2": "2 54743   0.6882  23.8293 0001653 238.2122 156.4626  1.00269356 11128"
      },
      "geometry": {
        "type": "Point",
        "coordinates": [
          -24.728724436212648,
          -0.5159516341088238
        ]
      }
    }
  ]
}